NORAD_CAT_ID,OBJECT_NAME,OBJECT_TYPE,EPOCH,MEAN_MOTION,ECCENTRICITY,INCLINATION,RA_OF_ASC_NODE,ARG_OF_PERICENTER,MEAN_ANOMALY,BSTAR,MEAN_MOTION_DOT,MEAN_MOTION_DDOT,TLE_LINE0,TLE_LINE1,TLE_LINE2,SEMIMAJOR_AXIS,PERIOD,APOGEE,PERIGEE,DECAYED
55403.0,STARLINK-5597,PAYLOAD,2023-10-28 12:52:05,14.98320435,0.0002872,70.0,80.7659,271.5436,88.5394,-5.2816e-05,-7.23e-06,0.0,0 STARLINK-5597,1 55403U 23014N   23301.53617952 -.00000723  00000-0 -52816-4 0  9994,2 55403  70.0000  80.7659 0002872 271.5436  88.5394 14.98320435 42763,6950.222,96.108,574.084,570.091,0.0
55403.0,STARLINK-5597,PAYLOAD,2023-10-28 19:16:37,14.98324317,0.0003016,69.9995,80.0914,268.3246,91.7567,-3.3822e-05,-4.96e-06,0.0,0 STARLINK-5597,1 55403U 23014N   23301.80321694 -.00000496  00000-0 -33822-4 0  9992,2 55403  69.9995  80.0914 0003016 268.3246  91.7567 14.98324317 42800,6950.21,96.107,574.172,569.979,0.0
55403.0,STARLINK-5597,PAYLOAD,2023-10-29 12:54:05,14.98339756,0.0003082,69.9994,78.2386,270.6745,89.4061,9.3034e-06,1.8e-07,0.0,0 STARLINK-5597,1 55403U 23014N   23302.53756434  .00000018  00000-0  93034-5 0  9997,2 55403  69.9994  78.2386 0003082 270.6745  89.4061 14.98339756 41977,6950.163,96.106,574.17,569.886,0.0
55403.0,STARLINK-5597,PAYLOAD,2023-10-29 14:30:13,14.98341776,0.0002722,70.0008,78.0717,265.823,94.2618,2.1593e-05,1.65e-06,0.0,0 STARLINK-5597,1 55403U 23014N   23302.60432244  .00000165  00000-0  21593-4 0  9998,2 55403  70.0008  78.0717 0002722 265.8230  94.2618 14.98341776 42920,6950.156,96.106,573.913,570.13,0.0
55403.0,STARLINK-5597,PAYLOAD,2023-10-29 19:18:37,14.98346179,0.0002923,70.0011,77.5687,269.117,90.9654,2.136e-05,1.62e-06,0.0,0 STARLINK-5597,1 55403U 23014N   23302.80459761  .00000162  00000-0  21360-4 0  9992,2 55403  70.0011  77.5687 0002923 269.1170  90.9654 14.98346179 42955,6950.143,96.106,574.039,569.976,0.0
55403.0,STARLINK-5597,PAYLOAD,2023-10-30 11:19:59,14.98322931,0.0003176,69.9999,75.8834,272.8995,87.18,4.1666e-05,4.04e-06,0.0,0 STARLINK-5597,1 55403U 23014N   23303.47221069  .00000404  00000-0  41666-4 0  9994,2 55403  69.9999  75.8834 0003176 272.8995  87.1800 14.98322931 42118,6950.215,96.107,574.287,569.872,0.0
55403.0,STARLINK-5597,PAYLOAD,2023-10-30 19:20:39,14.98327427,0.0003075,69.9999,75.0419,271.697,88.3837,5.0709e-05,5.12e-06,0.0,0 STARLINK-5597,1 55403U 23014N   23303.80600827  .00000512  00000-0  50709-4 0  9992,2 55403  69.9999  75.0419 0003075 271.6970  88.3837 14.98327427 43105,6950.201,96.107,574.203,569.929,0.0
55403.0,STARLINK-5597,PAYLOAD,2023-10-31 12:58:08,14.98331941,0.0003028,70.0001,73.1899,271.159,88.9222,-0.00015538,-1.947e-05,0.0,0 STARLINK-5597,1 55403U 23014N   23304.54037138 -.00001947  00000-0 -15538-3 0  9998,2 55403  70.0001  73.1899 0003028 271.1590  88.9222 14.98331941 42271,6950.187,96.107,574.156,569.947,0.0
55403.0,STARLINK-5597,PAYLOAD,2023-10-31 14:34:15,14.98333333,0.0003008,70.0002,73.0224,269.0189,91.0626,-0.0001298,-1.642e-05,0.0,0 STARLINK-5597,1 55403U 23014N   23304.60712953 -.00001642  00000-0 -12980-3 0  9990,2 55403  70.0002  73.0224 0003008 269.0189  91.0626 14.98333333 43227,6950.183,96.107,574.138,569.957,0.0
55403.0,STARLINK-5597,PAYLOAD,2023-10-31 17:46:32,14.98334117,0.0003014,70.0005,72.6858,270.1381,89.9433,-0.00011158,-1.424e-05,0.0,0 STARLINK-5597,1 55403U 23014N   23304.74064834 -.00001424  00000-0 -11158-3 0  9997,2 55403  70.0005  72.6858 0003014 270.1381  89.9433 14.98334117 43247,6950.18,96.107,574.14,569.95,0.0
55403.0,STARLINK-5597,PAYLOAD,2023-11-01 14:36:17,14.98316722,0.0003161,70.0014,70.4969,270.4737,89.606,8.885e-05,9.67e-06,0.0,0 STARLINK-5597,1 55403U 23014N   23305.60853355  .00000967  00000-0  88850-4 0  9990,2 55403  70.0014  70.4969 0003161 270.4737  89.6060 14.98316722 43376,6950.234,96.108,574.296,569.902,0.0
55403.0,STARLINK-5597,PAYLOAD,2023-11-01 17:48:32,14.9833833,0.000308,70.0015,70.1592,279.145,80.9361,1.2756e-05,5.9e-07,0.0,0 STARLINK-5597,1 55403U 23014N   23305.74204247  .00000059  00000-0  12756-4 0  9999,2 55403  70.0015  70.1592 0003080 279.1450  80.9361 14.98338330 42459,6950.167,96.106,574.173,569.891,0.0
55403.0,STARLINK-5597,PAYLOAD,2023-11-02 01:49:13,14.98324885,0.0002634,70.0029,69.3187,273.705,86.3808,-1.4404e-06,-1.1e-06,0.0,0 STARLINK-5597,1 55403U 23014N   23306.07585233 -.00000110  00000-0 -14404-5 0  9996,2 55403  70.0029  69.3187 0002634 273.7050  86.3808 14.98324885 42506,6950.209,96.107,573.904,570.243,0.0
55403.0,STARLINK-5597,PAYLOAD,2023-11-02 14:38:17,14.98331996,0.0002578,70.0017,67.9717,259.7342,100.3526,0.00015721,1.783e-05,0.0,0 STARLINK-5597,1 55403U 23014N   23306.60992306  .00001783  00000-0  15721-3 0  9994,2 55403  70.0017  67.9717 0002578 259.7342 100.3526 14.98331996 43529,6950.187,96.107,573.843,570.26,0.0
55403.0,STARLINK-5597,PAYLOAD,2023-11-02 17:50:33,14.98327243,0.0002817,70.0016,67.6347,263.8517,96.2321,0.0001142,1.27e-05,0.0,0 STARLINK-5597,1 55403U 23014N   23306.74344705  .00001270  00000-0  11420-3 0  9996,2 55403  70.0016  67.6347 0002817 263.8517  96.2321 14.98327243 42604,6950.201,96.107,574.024,570.109,0.0
55403.0,STARLINK-5597,PAYLOAD,2023-11-03 11:28:03,14.98324501,0.0002978,70.0011,65.7848,275.1814,84.9005,-4.5509e-05,-6.36e-06,0.0,0 STARLINK-5597,1 55403U 23014N   23307.47781426 -.00000636  00000-0 -45509-4 0  9995,2 55403  70.0011  65.7848 0002978 275.1814  84.9005 14.98324501 42717,6950.21,96.107,574.145,570.005,0.0
55403.0,STARLINK-5597,PAYLOAD,2023-11-03 14:40:19,14.98326431,0.0002876,70.0008,65.4471,268.9223,91.1606,-1.9979e-05,-3.31e-06,0.0,0 STARLINK-5597,1 55403U 23014N   23307.61133229 -.00000331  00000-0 -19979-4 0  9997,2 55403  70.0008  65.4471 0002876 268.9223  91.1606 14.98326431 43670,6950.204,96.107,574.068,570.07,0.0
55403.0,STARLINK-5597,PAYLOAD,2023-11-03 17:52:35,14.98326654,0.000293,70.0011,65.1107,268.9584,91.124,-2.78e-05,-4.25e-06,0.0,0 STARLINK-5597,1 55403U 23014N   23307.74485258 -.00000425  00000-0 -27800-4 0  9999,2 55403  70.0011  65.1107 0002930 268.9584  91.1240 14.98326654 43691,6950.203,96.107,574.105,570.032,0.0
55403.0,STARLINK-5597,PAYLOAD,2023-11-04 09:53:55,14.9833016,0.0003185,70.0015,63.4274,273.1289,86.9506,5.1497e-05,5.22e-06,0.0,0 STARLINK-5597,1 55403U 23014N   23308.41244850  .00000522  00000-0  51497-4 0  9990,2 55403  70.0015  63.4274 0003185 273.1289  86.9506 14.98330160 42855,6950.192,96.107,574.271,569.844,0.0
55403.0,STARLINK-5597,PAYLOAD,2023-11-04 14:42:18,14.98342298,0.0003132,70.0011,62.9233,271.468,88.612,0.00016246,1.847e-05,0.0,0 STARLINK-5597,1 55403U 23014N   23308.61271744  .00001847  00000-0  16246-3 0  9997,2 55403  70.0011  62.9233 0003132 271.4680  88.6120 14.98342298 43822,6950.155,96.106,574.197,569.843,0.0
55403.0,STARLINK-5597,PAYLOAD,2023-11-04 17:54:34,14.98346748,0.0003242,70.0007,62.5857,273.5013,86.5775,0.00017866,2.04e-05,0.0,0 STARLINK-5597,1 55403U 23014N   23308.74623262  .00002040  00000-0  17866-3 0  9992,2 55403  70.0007  62.5857 0003242 273.5013  86.5775 14.98346748 42905,6950.141,96.106,574.259,569.753,0.0
55403.0,STARLINK-5597,PAYLOAD,2023-11-05 11:32:04,14.98327788,0.0002847,70.0031,60.7371,273.6754,86.408,7.9799e-05,8.59e-06,0.0,0 STARLINK-5597,1 55403U 23014N   23309.48060598  .00000859  00000-0  79799-4 0  9991,2 55403  70.0031  60.7371 0002847 273.6754  86.4080 14.98327788 43010,6950.2,96.107,574.043,570.086,0.0
55403.0,STARLINK-5597,PAYLOAD,2023-11-05 14:44:20,14.98331123,0.0002957,70.0014,60.3982,268.3764,91.7057,5.711e-05,5.89e-06,0.0,0 STARLINK-5597,1 55403U 23014N   23309.61412392  .00000589  00000-0  57110-4 0  9992,2 55403  70.0014  60.3982 0002957 268.3764  91.7057 14.98331123 43975,6950.189,96.107,574.11,569.999,0.0
55403.0,STARLINK-5597,PAYLOAD,2023-11-05 17:56:35,14.98336528,0.0002875,70.0018,60.0637,259.8117,100.2718,0.00011046,1.225e-05,0.0,0 STARLINK-5597,1 55403U 23014N   23309.74763831  .00001225  00000-0  11046-3 0  9998,2 55403  70.0018  60.0637 0002875 259.8117 100.2718 14.98336528 43052,6950.173,96.107,574.036,570.04,0.0
55403.0,STARLINK-5597,PAYLOAD,2023-11-06 13:10:11,14.98346942,0.0003024,70.0016,58.0427,267.5011,92.5802,0.00010593,1.172e-05,0.0,0 STARLINK-5597,1 55403U 23014N   23310.54874587  .00001172  00000-0  10593-3 0  9996,2 55403  70.0016  58.0427 0003024 267.5011  92.5802 14.98346942 44116,6950.14,96.106,574.107,569.904,0.0
55403.0,STARLINK-5597,PAYLOAD,2023-11-06 16:22:31,14.98297329,0.0003065,70.0009,57.7045,273.1114,86.9695,-0.00059042,-7.125e-05,0.0,0 STARLINK-5597,1 55403U 23014N   23310.68231436 -.00007125  00000-0 -59042-3 0  9999,2 55403  70.0009  57.7045 0003065 273.1114  86.9695 14.98297329 43190,6950.294,96.109,574.289,570.029,0.0
55403.0,STARLINK-5597,PAYLOAD,2023-11-07 11:36:08,14.98313912,0.0002594,70.0013,55.686,254.8792,105.2081,-0.00021687,-2.678e-05,0.0,0 STARLINK-5597,1 55403U 23014N   23311.48342603 -.00002678  00000-0 -21687-3 0  9999,2 55403  70.0013  55.6860 0002594 254.8792 105.2081 14.98313912 43316,6950.243,96.108,573.911,570.305,0.0
55403.0,STARLINK-5597,PAYLOAD,2023-11-07 13:12:16,14.98314864,0.0002676,70.0013,55.5172,267.1902,92.8951,-0.00017197,-2.143e-05,0.0,0 STARLINK-5597,1 55403U 23014N   23311.55018525 -.00002143  00000-0 -17197-3 0  9998,2 55403  70.0013  55.5172 0002676 267.1902  92.8951 14.98314864 44261,6950.24,96.108,573.965,570.245,0.0
55403.0,STARLINK-5597,PAYLOAD,2023-11-08 00:25:11,14.98328574,0.0003381,70.0015,54.3387,270.323,89.7542,-0.00010412,-1.335e-05,0.0,0 STARLINK-5597,1 55403U 23014N   23312.01749663 -.00001335  00000-0 -10412-3 0  9999,2 55403  70.0015  54.3387 0003381 270.3230  89.7542 14.98328574 43399,6950.197,96.107,574.412,569.712,0.0
55403.0,STARLINK-5597,PAYLOAD,2023-11-08 11:38:07,14.98333994,0.0002945,70.0013,53.1617,270.2539,89.8283,1.5345e-05,9e-07,0.0,0 STARLINK-5597,1 55403U 23014N   23312.48481233  .00000090  00000-0  15345-4 0  9992,2 55403  70.0013  53.1617 0002945 270.2539  89.8283 14.98333994 43469,6950.181,96.107,574.092,569.999,0.0
